{"spkid": "20138404", "covariance": {"epoch": "2457733.5", "labels": ["e", "q", "tp", "node", "peri", "i"], "data": [["6.615734679949832E-16", "-7.642931434970842E-16", "-6.299418383475028E-14", "1.35162386104185E-13", "-1.9273328808878E-13", "1.519641247311107E-15"], ["-7.642931434970842E-16", "8.843220733795797E-16", "6.222052218943392E-14", "-1.400263280617185E-13", "1.982653132706938E-13", "-1.366760780579224E-15"], ["-6.299418383475028E-14", "6.222052218943392E-14", "1.933383633788089E-10", "-1.07720228542025E-10", "2.516099593115487E-10", "-9.203459965254001E-12"], ["1.35162386104185E-13", "-1.400263280617185E-13", "-1.07720228542025E-10", "9.407619425936433E-9", "-9.502998608456117E-9", "2.053863332071954E-10"], ["-1.9273328808878E-13", "1.982653132706938E-13", "2.516099593115487E-10", "-9.502998608456117E-9", "9.714276869798985E-9", "-2.112682198708619E-10"], ["1.519641247311107E-15", "-1.366760780579224E-15", "-9.203459965254001E-12", "2.053863332071954E-10", "-2.112682198708619E-10", "1.167152789299138E-11"]], "elements": [{"units": null, "value": ".3187591542640069", "title": "eccentricity", "sigma": 2.57210705063958e-08, "name": "e", "label": "e"}, {"name": "q", "sigma": 2.97375532513954e-08, "value": ".7764424202332003", "title": "perihelion distance", "units": "au", "label": "q"}, {"label": "tp", "title": "time of perihelion passage", "value": "2457764.501329028063", "units": "TDB", "name": "tp", "sigma": 1.39046166210654e-05}, {"units": "deg", "value": "309.5825193051045", "title": "longitude of the ascending node", "sigma": 9.69928833777841e-05, "name": "om", "label": "node"}, {"name": "w", "sigma": 9.85610311928552e-05, "title": "argument of perihelion", "value": "142.0365591169919", "units": "deg", "label": "peri"}, {"label": "i", "units": "deg", "value": "2.169178110284196", "title": "inclination", "sigma": 3.41636179187617e-06, "name": "i"}]}, "elements": [{"name": "e", "sigma": "2.5815E-8", "units": null, "title": "eccentricity", "value": ".3185506389677999", "label": "e"}, {"value": "1.138727666323907", "title": "semi-major axis", "units": "au", "name": "a", "sigma": "1.9936E-9", "label": "a"}, {"sigma": "2.9581E-8", "name": "q", "value": ".775985240606115", "title": "perihelion distance", "units": "au", "label": "q"}, {"units": "deg", "value": "2.164284055532323", "title": "inclination; angle with respect to x-y ecliptic plane", "name": "i", "sigma": "3.4114E-6", "label": "i"}, {"label": "node", "title": "longitude of the ascending node", "value": "309.3489004237326", "units": "deg", "name": "om", "sigma": "9.7473E-5"}, {"label": "peri", "sigma": "9.9077E-5", "name": "w", "value": "142.2225735615269", "title": "argument of perihelion", "units": "deg"}, {"name": "ma", "sigma": "7.2477E-6", "units": "deg", "title": "mean anomaly", "value": "266.4570130271933", "label": "M"}, {"label": "tp", "units": "TDB", "value": "2461315.828586194524", "title": "time of perihelion passage", "name": "tp", "sigma": "8.8797E-6"}, {"label": "period", "units": "d", "title": "sidereal orbital period", "value": "443.8418354344209", "name": "per", "sigma": "1.1656E-6"}, {"name": "n", "sigma": "2.13E-9", "units": "deg/d", "value": ".8110997460337224", "title": "mean motion", "label": "n"}, {"label": "Q", "name": "ad", "sigma": "2.6287E-9", "value": "1.501470092041699", "title": "aphelion distance", "units": "au"}], "epoch": "2461200.5"}